<?xml version="1.0" encoding="UTF-8"?>
<ndm xmlns:xsi="http://www.w3.org/2001/XMLSchema-instance" xsi:noNamespaceSchemaLocation="https://sanaregistry.org/r/ndmxml_unqualified/ndmxml-2.0.0-master-2.0.xsd">
<omm id="CCSDS_OMM_VERS" version="2.0">
<header><CREATION_DATE/><ORIGINATOR/></header><body><segment><metadata><OBJECT_NAME>KUIPER-00053</OBJECT_NAME><OBJECT_ID>2025-134P</OBJECT_ID><CENTER_NAME>EARTH</CENTER_NAME><REF_FRAME>TEME</REF_FRAME><TIME_SYSTEM>UTC</TIME_SYSTEM><MEAN_ELEMENT_THEORY>SGP4</MEAN_ELEMENT_THEORY></metadata><data><meanElements><EPOCH>2025-08-25T14:33:21.053088</EPOCH><MEAN_MOTION>15.37220181</MEAN_MOTION><ECCENTRICITY>.00023935</ECCENTRICITY><INCLINATION>51.8801</INCLINATION><RA_OF_ASC_NODE>25.9995</RA_OF_ASC_NODE><ARG_OF_PERICENTER>319.7379</ARG_OF_PERICENTER><MEAN_ANOMALY>40.3430</MEAN_ANOMALY></meanElements><tleParameters><EPHEMERIS_TYPE>0</EPHEMERIS_TYPE><CLASSIFICATION_TYPE>U</CLASSIFICATION_TYPE><NORAD_CAT_ID>64513</NORAD_CAT_ID><ELEMENT_SET_NO>999</ELEMENT_SET_NO><REV_AT_EPOCH>1095</REV_AT_EPOCH><BSTAR>.98308796E-3</BSTAR><MEAN_MOTION_DOT>.36181E-3</MEAN_MOTION_DOT><MEAN_MOTION_DDOT>0</MEAN_MOTION_DDOT></tleParameters></data></segment></body></omm>
<omm id="CCSDS_OMM_VERS" version="2.0">
<header><CREATION_DATE/><ORIGINATOR/></header><body><segment><metadata><OBJECT_NAME>KUIPER-00054</OBJECT_NAME><OBJECT_ID>2025-134Q</OBJECT_ID><CENTER_NAME>EARTH</CENTER_NAME><REF_FRAME>TEME</REF_FRAME><TIME_SYSTEM>UTC</TIME_SYSTEM><MEAN_ELEMENT_THEORY>SGP4</MEAN_ELEMENT_THEORY></metadata><data><meanElements><EPOCH>2025-08-25T14:44:03.029280</EPOCH><MEAN_MOTION>15.37144983</MEAN_MOTION><ECCENTRICITY>.00039343</ECCENTRICITY><INCLINATION>51.8755</INCLINATION><RA_OF_ASC_NODE>26.0439</RA_OF_ASC_NODE><ARG_OF_PERICENTER>331.1535</ARG_OF_PERICENTER><MEAN_ANOMALY>28.9234</MEAN_ANOMALY></meanElements><tleParameters><EPHEMERIS_TYPE>0</EPHEMERIS_TYPE><CLASSIFICATION_TYPE>U</CLASSIFICATION_TYPE><NORAD_CAT_ID>64514</NORAD_CAT_ID><ELEMENT_SET_NO>999</ELEMENT_SET_NO><REV_AT_EPOCH>1095</REV_AT_EPOCH><BSTAR>.96867928E-3</BSTAR><MEAN_MOTION_DOT>.35559E-3</MEAN_MOTION_DOT><MEAN_MOTION_DDOT>0</MEAN_MOTION_DDOT></tleParameters></data></segment></body></omm>
<omm id="CCSDS_OMM_VERS" version="2.0">
<header><CREATION_DATE/><ORIGINATOR/></header><body><segment><metadata><OBJECT_NAME>KUIPER-00055</OBJECT_NAME><OBJECT_ID>2025-134R</OBJECT_ID><CENTER_NAME>EARTH</CENTER_NAME><REF_FRAME>TEME</REF_FRAME><TIME_SYSTEM>UTC</TIME_SYSTEM><MEAN_ELEMENT_THEORY>SGP4</MEAN_ELEMENT_THEORY></metadata><data><meanElements><EPOCH>2025-08-24T14:42:23.755680</EPOCH><MEAN_MOTION>15.37689231</MEAN_MOTION><ECCENTRICITY>.00011266</ECCENTRICITY><INCLINATION>51.8784</INCLINATION><RA_OF_ASC_NODE>30.5937</RA_OF_ASC_NODE><ARG_OF_PERICENTER>291.6459</ARG_OF_PERICENTER><MEAN_ANOMALY>68.4408</MEAN_ANOMALY></meanElements><tleParameters><EPHEMERIS_TYPE>0</EPHEMERIS_TYPE><CLASSIFICATION_TYPE>U</CLASSIFICATION_TYPE><NORAD_CAT_ID>64515</NORAD_CAT_ID><ELEMENT_SET_NO>999</ELEMENT_SET_NO><REV_AT_EPOCH>1080</REV_AT_EPOCH><BSTAR>.67426727E-3</BSTAR><MEAN_MOTION_DOT>.25037E-3</MEAN_MOTION_DOT><MEAN_MOTION_DDOT>0</MEAN_MOTION_DDOT></tleParameters></data></segment></body></omm>
<omm id="CCSDS_OMM_VERS" version="2.0">
<header><CREATION_DATE/><ORIGINATOR/></header><body><segment><metadata><OBJECT_NAME>KUIPER-00056</OBJECT_NAME><OBJECT_ID>2025-134S</OBJECT_ID><CENTER_NAME>EARTH</CENTER_NAME><REF_FRAME>TEME</REF_FRAME><TIME_SYSTEM>UTC</TIME_SYSTEM><MEAN_ELEMENT_THEORY>SGP4</MEAN_ELEMENT_THEORY></metadata><data><meanElements><EPOCH>2025-08-25T14:57:53.754912</EPOCH><MEAN_MOTION>15.36875215</MEAN_MOTION><ECCENTRICITY>.00043529</ECCENTRICITY><INCLINATION>51.8756</INCLINATION><RA_OF_ASC_NODE>26.0978</RA_OF_ASC_NODE><ARG_OF_PERICENTER>324.5552</ARG_OF_PERICENTER><MEAN_ANOMALY>35.5145</MEAN_ANOMALY></meanElements><tleParameters><EPHEMERIS_TYPE>0</EPHEMERIS_TYPE><CLASSIFICATION_TYPE>U</CLASSIFICATION_TYPE><NORAD_CAT_ID>64516</NORAD_CAT_ID><ELEMENT_SET_NO>999</ELEMENT_SET_NO><REV_AT_EPOCH>1095</REV_AT_EPOCH><BSTAR>.79229809E-3</BSTAR><MEAN_MOTION_DOT>.28734E-3</MEAN_MOTION_DOT><MEAN_MOTION_DDOT>0</MEAN_MOTION_DDOT></tleParameters></data></segment></body></omm>
<omm id="CCSDS_OMM_VERS" version="2.0">
<header><CREATION_DATE/><ORIGINATOR/></header><body><segment><metadata><OBJECT_NAME>KUIPER-00057</OBJECT_NAME><OBJECT_ID>2025-134T</OBJECT_ID><CENTER_NAME>EARTH</CENTER_NAME><REF_FRAME>TEME</REF_FRAME><TIME_SYSTEM>UTC</TIME_SYSTEM><MEAN_ELEMENT_THEORY>SGP4</MEAN_ELEMENT_THEORY></metadata><data><meanElements><EPOCH>2025-08-25T14:00:03.000384</EPOCH><MEAN_MOTION>15.30371691</MEAN_MOTION><ECCENTRICITY>.00079481</ECCENTRICITY><INCLINATION>51.8746</INCLINATION><RA_OF_ASC_NODE>26.9135</RA_OF_ASC_NODE><ARG_OF_PERICENTER>342.2311</ARG_OF_PERICENTER><MEAN_ANOMALY>198.9639</MEAN_ANOMALY></meanElements><tleParameters><EPHEMERIS_TYPE>0</EPHEMERIS_TYPE><CLASSIFICATION_TYPE>U</CLASSIFICATION_TYPE><NORAD_CAT_ID>64517</NORAD_CAT_ID><ELEMENT_SET_NO>999</ELEMENT_SET_NO><REV_AT_EPOCH>550</REV_AT_EPOCH><BSTAR>-.42216036E-1</BSTAR><MEAN_MOTION_DOT>-.1148413E-1</MEAN_MOTION_DOT><MEAN_MOTION_DDOT>0</MEAN_MOTION_DDOT></tleParameters></data></segment></body></omm>
<omm id="CCSDS_OMM_VERS" version="2.0">
<header><CREATION_DATE/><ORIGINATOR/></header><body><segment><metadata><OBJECT_NAME>KUIPER-00058</OBJECT_NAME><OBJECT_ID>2025-134U</OBJECT_ID><CENTER_NAME>EARTH</CENTER_NAME><REF_FRAME>TEME</REF_FRAME><TIME_SYSTEM>UTC</TIME_SYSTEM><MEAN_ELEMENT_THEORY>SGP4</MEAN_ELEMENT_THEORY></metadata><data><meanElements><EPOCH>2025-08-25T15:18:07.946208</EPOCH><MEAN_MOTION>15.36406304</MEAN_MOTION><ECCENTRICITY>.00057156</ECCENTRICITY><INCLINATION>51.8724</INCLINATION><RA_OF_ASC_NODE>26.1786</RA_OF_ASC_NODE><ARG_OF_PERICENTER>334.8699</ARG_OF_PERICENTER><MEAN_ANOMALY>25.2008</MEAN_ANOMALY></meanElements><tleParameters><EPHEMERIS_TYPE>0</EPHEMERIS_TYPE><CLASSIFICATION_TYPE>U</CLASSIFICATION_TYPE><NORAD_CAT_ID>64518</NORAD_CAT_ID><ELEMENT_SET_NO>999</ELEMENT_SET_NO><REV_AT_EPOCH>1095</REV_AT_EPOCH><BSTAR>.44564168E-3</BSTAR><MEAN_MOTION_DOT>.15722E-3</MEAN_MOTION_DOT><MEAN_MOTION_DDOT>0</MEAN_MOTION_DDOT></tleParameters></data></segment></body></omm>
<omm id="CCSDS_OMM_VERS" version="2.0">
<header><CREATION_DATE/><ORIGINATOR/></header><body><segment><metadata><OBJECT_NAME>KUIPER-00059</OBJECT_NAME><OBJECT_ID>2025-134V</OBJECT_ID><CENTER_NAME>EARTH</CENTER_NAME><REF_FRAME>TEME</REF_FRAME><TIME_SYSTEM>UTC</TIME_SYSTEM><MEAN_ELEMENT_THEORY>SGP4</MEAN_ELEMENT_THEORY></metadata><data><meanElements><EPOCH>2025-08-24T19:28:00.717024</EPOCH><MEAN_MOTION>15.37638421</MEAN_MOTION><ECCENTRICITY>.00020863</ECCENTRICITY><INCLINATION>51.8796</INCLINATION><RA_OF_ASC_NODE>29.6709</RA_OF_ASC_NODE><ARG_OF_PERICENTER>312.4358</ARG_OF_PERICENTER><MEAN_ANOMALY>47.6452</MEAN_ANOMALY></meanElements><tleParameters><EPHEMERIS_TYPE>0</EPHEMERIS_TYPE><CLASSIFICATION_TYPE>U</CLASSIFICATION_TYPE><NORAD_CAT_ID>64519</NORAD_CAT_ID><ELEMENT_SET_NO>999</ELEMENT_SET_NO><REV_AT_EPOCH>1083</REV_AT_EPOCH><BSTAR>.80157184E-3</BSTAR><MEAN_MOTION_DOT>.29808E-3</MEAN_MOTION_DOT><MEAN_MOTION_DDOT>0</MEAN_MOTION_DDOT></tleParameters></data></segment></body></omm>
<omm id="CCSDS_OMM_VERS" version="2.0">
<header><CREATION_DATE/><ORIGINATOR/></header><body><segment><metadata><OBJECT_NAME>KUIPER-00060</OBJECT_NAME><OBJECT_ID>2025-134W</OBJECT_ID><CENTER_NAME>EARTH</CENTER_NAME><REF_FRAME>TEME</REF_FRAME><TIME_SYSTEM>UTC</TIME_SYSTEM><MEAN_ELEMENT_THEORY>SGP4</MEAN_ELEMENT_THEORY></metadata><data><meanElements><EPOCH>2025-08-25T14:21:56.697696</EPOCH><MEAN_MOTION>15.37569666</MEAN_MOTION><ECCENTRICITY>.00024049</ECCENTRICITY><INCLINATION>51.8786</INCLINATION><RA_OF_ASC_NODE>25.9501</RA_OF_ASC_NODE><ARG_OF_PERICENTER>304.4464</ARG_OF_PERICENTER><MEAN_ANOMALY>55.6295</MEAN_ANOMALY></meanElements><tleParameters><EPHEMERIS_TYPE>0</EPHEMERIS_TYPE><CLASSIFICATION_TYPE>U</CLASSIFICATION_TYPE><NORAD_CAT_ID>64520</NORAD_CAT_ID><ELEMENT_SET_NO>999</ELEMENT_SET_NO><REV_AT_EPOCH>1094</REV_AT_EPOCH><BSTAR>.10638966E-2</BSTAR><MEAN_MOTION_DOT>.39655E-3</MEAN_MOTION_DOT><MEAN_MOTION_DDOT>0</MEAN_MOTION_DDOT></tleParameters></data></segment></body></omm>

</ndm>
