KUIPER-00053            
1 64513U 25134P   25237.60649367  .00036181  00000+0  98309-3 0  9994
2 64513  51.8801  25.9995 0002393 319.7379  40.3430 15.37220181 10958
KUIPER-00054            
1 64514U 25134Q   25237.61392395  .00035559  00000+0  96868-3 0  9998
2 64514  51.8755  26.0439 0003934 331.1535  28.9234 15.37144983 10955
KUIPER-00055            
1 64515U 25134R   25236.61277495  .00025037  00000+0  67427-3 0  9990
2 64515  51.8784  30.5937 0001126 291.6459  68.4408 15.37689231 10803
KUIPER-00056            
1 64516U 25134S   25237.62353883  .00028734  00000+0  79230-3 0  9991
2 64516  51.8756  26.0978 0004352 324.5552  35.5145 15.36875215 10959
KUIPER-00057            
1 64517U 25134T   25237.58336806 -.01148413  00000+0 -42216-1 0  9995
2 64517  51.8746  26.9135 0007948 342.2311 198.9639 15.30371691  5507
KUIPER-00058            
1 64518U 25134U   25237.63759197  .00015722  00000+0  44564-3 0  9997
2 64518  51.8724  26.1786 0005715 334.8699  25.2008 15.36406304 10957
KUIPER-00059            
1 64519U 25134V   25236.81111941  .00029808  00000+0  80157-3 0  9994
2 64519  51.8796  29.6709 0002086 312.4358  47.6452 15.37638421 10838
KUIPER-00060            
1 64520U 25134W   25237.59857289  .00039655  00000+0  10639-2 0  9992
2 64520  51.8786  25.9501 0002404 304.4464  55.6295 15.37569666 10941
